TRANSPORTER-16 OBJECT BL
1 68474U 26067BL  26103.91718706  .00001756  00000+0  17747-3 0  9998
2 68474  97.7497  63.1931 0003938  93.2647 266.9022 14.92284797  2148
