{
  "norad_id": 68474,
  "name": "TRANSPORTER-16 OBJECT BL",
  "history": [
    {
      "epoch": "2026-04-13T22:00:44.961984Z",
      "apogee_km": 593.5581229907302,
      "perigee_km": 588.0684021109082,
      "latitude_deg": -6.597557332507939e-05,
      "longitude_deg": -109.09532221906322,
      "height_km": 594.0053972139104,
      "semi_major_axis_km": 6968.950262550819,
      "eccentricity": 0.00039387,
      "inclination_deg": 97.7497,
      "raan_deg": 63.1931,
      "arg_perigee_deg": 93.2647,
      "mean_anomaly_deg": 266.9022,
      "mean_motion_rev_day": 14.92284797
    }
  ]
}